NOAA 1                  
1 04793U 70106A   26067.04230854 -.00000044  00000+0 -69672-5 0  9998
2 04793 101.3517 106.1420 0031745 184.0750 190.6950 12.54049263528014
NOAA 2 (ITOS-D)         
1 06235U 72082A   26067.06146705 -.00000044  00000+0  16112-4 0  9998
2 06235 102.0166  84.4968 0003977   8.1865  60.1059 12.53211756442281
NOAA 3                  
1 06920U 73086A   26067.04849504 -.00000044  00000+0  20879-4 0  9994
2 06920 102.2909  80.0110 0006192 311.9606  64.8564 12.40391683369363
NOAA 4                  
1 07529U 74089A   26067.02894289 -.00000044  00000+0  17697-4 0  9996
2 07529 102.0074  78.7423 0009133  31.8961 341.5922 12.53201633346852
NOAA 5                  
1 09057U 76077A   26066.88985221 -.00000033  00000+0  97430-4 0  9994
2 09057 102.2958  52.3871 0009793 163.9420 209.3255 12.37828274241949
TIROS N                 
1 11060U 78096A   26067.04921056  .00000233  00000+0  13056-3 0  9991
2 11060  98.4636  92.6420 0010658 169.6702 190.4695 14.19337737664409
NOAA 6                  
1 11416U 79057A   26067.08775506  .00000428  00000+0  16421-3 0  9990
2 11416  98.5752  97.2509 0009625 191.8082 168.2879 14.35432428436453
NOAA 7                  
1 12553U 81059A   26067.10856867  .00000075  00000+0  58562-4 0  9992
2 12553  98.8062 135.1729 0011295 192.3329 167.7571 14.17773022310424
NOAA 8                  
1 13923U 83022A   26067.01476139  .00000214  00000+0  10076-3 0  9998
2 13923  98.7374  79.8066 0014570 190.5132 169.5748 14.29766231236611
NOAA 9                  
1 15427U 84123A   26067.09399104  .00000165  00000+0  10503-3 0  9996
2 15427  99.1097  91.3418 0013683 276.5511 152.2160 14.17038480129106
NOAA 10                 
1 16969U 86073A   26067.00471846  .00000237  00000+0  11099-3 0  9990
2 16969  98.7000  60.4007 0011089 294.6056 133.0710 14.29143643 54961
NOAA 11                 
1 19531U 88089A   26066.80776490  .00000121  00000+0  83188-4 0  9998
2 19531  98.6092  15.9116 0010180 225.3863 134.6482 14.15820368933132
NOAA 12                 
1 21263U 91032A   26067.14044335  .00000182  00000+0  93375-4 0  9995
2 21263  98.6153  57.1658 0013028 327.9636  32.0752 14.26717136810556
NOAA 13                 
1 22739U 93050A   26066.80946256  .00000186  00000+0  12133-3 0  9997
2 22739  98.6931  14.6091 0010458  61.8881 298.3348 14.13635790679055
NOAA 14                 
1 23455U 94089A   26067.12602308  .00000094  00000+0  70235-4 0  9995
2 23455  98.5021  41.4152 0009888  20.7471 339.4102 14.14654753608913
NOAA 15                 
1 25338U 98030A   26067.08612713  .00000199  00000+0  99145-4 0  9990
2 25338  98.5165  90.4093 0009091 285.4416  74.5761 14.27111877446879
NOAA 16                 
1 26536U 00055A   26067.11197927  .00000144  00000+0  97489-4 0  9999
2 26536  98.4706  86.6969 0009525 227.2357 132.8016 14.13897630609447
