[{"OBJECT_NAME":"NOAA 1","OBJECT_ID":"1970-106A","EPOCH":"2026-03-08T01:00:55.457856","MEAN_MOTION":12.54049263,"ECCENTRICITY":0.0031745,"INCLINATION":101.3517,"RA_OF_ASC_NODE":106.142,"ARG_OF_PERICENTER":184.075,"MEAN_ANOMALY":190.695,"EPHEMERIS_TYPE":0,"CLASSIFICATION_TYPE":"U","NORAD_CAT_ID":4793,"ELEMENT_SET_NO":999,"REV_AT_EPOCH":52801,"BSTAR":-6.9672e-6,"MEAN_MOTION_DOT":-4.4e-7,"MEAN_MOTION_DDOT":0},{"OBJECT_NAME":"NOAA 2 (ITOS-D)","OBJECT_ID":"1972-082A","EPOCH":"2026-03-08T01:28:30.753120","MEAN_MOTION":12.53211756,"ECCENTRICITY":0.0003977,"INCLINATION":102.0166,"RA_OF_ASC_NODE":84.4968,"ARG_OF_PERICENTER":8.1865,"MEAN_ANOMALY":60.1059,"EPHEMERIS_TYPE":0,"CLASSIFICATION_TYPE":"U","NORAD_CAT_ID":6235,"ELEMENT_SET_NO":999,"REV_AT_EPOCH":44228,"BSTAR":1.6112e-5,"MEAN_MOTION_DOT":-4.4e-7,"MEAN_MOTION_DDOT":0},{"OBJECT_NAME":"NOAA 3","OBJECT_ID":"1973-086A","EPOCH":"2026-03-08T01:09:49.971456","MEAN_MOTION":12.40391683,"ECCENTRICITY":0.0006192,"INCLINATION":102.2909,"RA_OF_ASC_NODE":80.011,"ARG_OF_PERICENTER":311.9606,"MEAN_ANOMALY":64.8564,"EPHEMERIS_TYPE":0,"CLASSIFICATION_TYPE":"U","NORAD_CAT_ID":6920,"ELEMENT_SET_NO":999,"REV_AT_EPOCH":36936,"BSTAR":2.0879e-5,"MEAN_MOTION_DOT":-4.4e-7,"MEAN_MOTION_DDOT":0},{"OBJECT_NAME":"NOAA 4","OBJECT_ID":"1974-089A","EPOCH":"2026-03-08T00:41:40.665696","MEAN_MOTION":12.53201633,"ECCENTRICITY":0.0009133,"INCLINATION":102.0074,"RA_OF_ASC_NODE":78.7423,"ARG_OF_PERICENTER":31.8961,"MEAN_ANOMALY":341.5922,"EPHEMERIS_TYPE":0,"CLASSIFICATION_TYPE":"U","NORAD_CAT_ID":7529,"ELEMENT_SET_NO":999,"REV_AT_EPOCH":34685,"BSTAR":1.7697e-5,"MEAN_MOTION_DOT":-4.4e-7,"MEAN_MOTION_DDOT":0},{"OBJECT_NAME":"NOAA 5","OBJECT_ID":"1976-077A","EPOCH":"2026-03-07T21:21:23.230944","MEAN_MOTION":12.37828274,"ECCENTRICITY":0.00097938,"INCLINATION":102.2958,"RA_OF_ASC_NODE":52.3871,"ARG_OF_PERICENTER":163.942,"MEAN_ANOMALY":209.3255,"EPHEMERIS_TYPE":0,"CLASSIFICATION_TYPE":"U","NORAD_CAT_ID":9057,"ELEMENT_SET_NO":999,"REV_AT_EPOCH":24194,"BSTAR":9.7430376e-5,"MEAN_MOTION_DOT":-3.3e-7,"MEAN_MOTION_DDOT":0},{"OBJECT_NAME":"TIROS N","OBJECT_ID":"1978-096A","EPOCH":"2026-03-08T01:10:51.792384","MEAN_MOTION":14.19337737,"ECCENTRICITY":0.0010658,"INCLINATION":98.4636,"RA_OF_ASC_NODE":92.642,"ARG_OF_PERICENTER":169.6702,"MEAN_ANOMALY":190.4695,"EPHEMERIS_TYPE":0,"CLASSIFICATION_TYPE":"U","NORAD_CAT_ID":11060,"ELEMENT_SET_NO":999,"REV_AT_EPOCH":66440,"BSTAR":0.00013056,"MEAN_MOTION_DOT":2.33e-6,"MEAN_MOTION_DDOT":0},{"OBJECT_NAME":"NOAA 6","OBJECT_ID":"1979-057A","EPOCH":"2026-03-08T02:06:22.037184","MEAN_MOTION":14.35432428,"ECCENTRICITY":0.0009625,"INCLINATION":98.5752,"RA_OF_ASC_NODE":97.2509,"ARG_OF_PERICENTER":191.8082,"MEAN_ANOMALY":168.2879,"EPHEMERIS_TYPE":0,"CLASSIFICATION_TYPE":"U","NORAD_CAT_ID":11416,"ELEMENT_SET_NO":999,"REV_AT_EPOCH":43645,"BSTAR":0.00016421,"MEAN_MOTION_DOT":4.28e-6,"MEAN_MOTION_DDOT":0},{"OBJECT_NAME":"NOAA 7","OBJECT_ID":"1981-059A","EPOCH":"2026-03-08T02:36:20.333088","MEAN_MOTION":14.17773022,"ECCENTRICITY":0.0011295,"INCLINATION":98.8062,"RA_OF_ASC_NODE":135.1729,"ARG_OF_PERICENTER":192.3329,"MEAN_ANOMALY":167.7571,"EPHEMERIS_TYPE":0,"CLASSIFICATION_TYPE":"U","NORAD_CAT_ID":12553,"ELEMENT_SET_NO":999,"REV_AT_EPOCH":31042,"BSTAR":5.8562e-5,"MEAN_MOTION_DOT":7.5e-7,"MEAN_MOTION_DDOT":0},{"OBJECT_NAME":"NOAA 8","OBJECT_ID":"1983-022A","EPOCH":"2026-03-08T00:21:15.384096","MEAN_MOTION":14.29766231,"ECCENTRICITY":0.001457,"INCLINATION":98.7374,"RA_OF_ASC_NODE":79.8066,"ARG_OF_PERICENTER":190.5132,"MEAN_ANOMALY":169.5748,"EPHEMERIS_TYPE":0,"CLASSIFICATION_TYPE":"U","NORAD_CAT_ID":13923,"ELEMENT_SET_NO":999,"REV_AT_EPOCH":23661,"BSTAR":0.00010076,"MEAN_MOTION_DOT":2.14e-6,"MEAN_MOTION_DDOT":0},{"OBJECT_NAME":"NOAA 9","OBJECT_ID":"1984-123A","EPOCH":"2026-03-08T02:15:20.825856","MEAN_MOTION":14.1703848,"ECCENTRICITY":0.0013683,"INCLINATION":99.1097,"RA_OF_ASC_NODE":91.3418,"ARG_OF_PERICENTER":276.5511,"MEAN_ANOMALY":152.216,"EPHEMERIS_TYPE":0,"CLASSIFICATION_TYPE":"U","NORAD_CAT_ID":15427,"ELEMENT_SET_NO":999,"REV_AT_EPOCH":12910,"BSTAR":0.00010503,"MEAN_MOTION_DOT":1.65e-6,"MEAN_MOTION_DDOT":0},{"OBJECT_NAME":"NOAA 10","OBJECT_ID":"1986-073A","EPOCH":"2026-03-08T00:06:47.674944","MEAN_MOTION":14.29143643,"ECCENTRICITY":0.0011089,"INCLINATION":98.7,"RA_OF_ASC_NODE":60.4007,"ARG_OF_PERICENTER":294.6056,"MEAN_ANOMALY":133.071,"EPHEMERIS_TYPE":0,"CLASSIFICATION_TYPE":"U","NORAD_CAT_ID":16969,"ELEMENT_SET_NO":999,"REV_AT_EPOCH":5496,"BSTAR":0.00011099,"MEAN_MOTION_DOT":2.37e-6,"MEAN_MOTION_DDOT":0},{"OBJECT_NAME":"NOAA 11","OBJECT_ID":"1988-089A","EPOCH":"2026-03-07T19:23:10.887360","MEAN_MOTION":14.15820368,"ECCENTRICITY":0.00101805,"INCLINATION":98.6092,"RA_OF_ASC_NODE":15.9116,"ARG_OF_PERICENTER":225.3863,"MEAN_ANOMALY":134.6482,"EPHEMERIS_TYPE":0,"CLASSIFICATION_TYPE":"U","NORAD_CAT_ID":19531,"ELEMENT_SET_NO":999,"REV_AT_EPOCH":93313,"BSTAR":8.318819e-5,"MEAN_MOTION_DOT":1.21e-6,"MEAN_MOTION_DDOT":0},{"OBJECT_NAME":"NOAA 12","OBJECT_ID":"1991-032A","EPOCH":"2026-03-08T03:22:14.305440","MEAN_MOTION":14.26717136,"ECCENTRICITY":0.0013028,"INCLINATION":98.6153,"RA_OF_ASC_NODE":57.1658,"ARG_OF_PERICENTER":327.9636,"MEAN_ANOMALY":32.0752,"EPHEMERIS_TYPE":0,"CLASSIFICATION_TYPE":"U","NORAD_CAT_ID":21263,"ELEMENT_SET_NO":999,"REV_AT_EPOCH":81055,"BSTAR":9.3375e-5,"MEAN_MOTION_DOT":1.82e-6,"MEAN_MOTION_DDOT":0},{"OBJECT_NAME":"NOAA 13","OBJECT_ID":"1993-050A","EPOCH":"2026-03-07T19:25:37.565184","MEAN_MOTION":14.1363579,"ECCENTRICITY":0.00104581,"INCLINATION":98.6931,"RA_OF_ASC_NODE":14.6091,"ARG_OF_PERICENTER":61.8881,"MEAN_ANOMALY":298.3348,"EPHEMERIS_TYPE":0,"CLASSIFICATION_TYPE":"U","NORAD_CAT_ID":22739,"ELEMENT_SET_NO":999,"REV_AT_EPOCH":67905,"BSTAR":0.00012133499,"MEAN_MOTION_DOT":1.86e-6,"MEAN_MOTION_DDOT":0},{"OBJECT_NAME":"NOAA 14","OBJECT_ID":"1994-089A","EPOCH":"2026-03-08T03:01:28.394112","MEAN_MOTION":14.14654753,"ECCENTRICITY":0.0009888,"INCLINATION":98.5021,"RA_OF_ASC_NODE":41.4152,"ARG_OF_PERICENTER":20.7471,"MEAN_ANOMALY":339.4102,"EPHEMERIS_TYPE":0,"CLASSIFICATION_TYPE":"U","NORAD_CAT_ID":23455,"ELEMENT_SET_NO":999,"REV_AT_EPOCH":60891,"BSTAR":7.0235e-5,"MEAN_MOTION_DOT":9.4e-7,"MEAN_MOTION_DDOT":0},{"OBJECT_NAME":"NOAA 15","OBJECT_ID":"1998-030A","EPOCH":"2026-03-08T02:04:01.384032","MEAN_MOTION":14.27111877,"ECCENTRICITY":0.0009091,"INCLINATION":98.5165,"RA_OF_ASC_NODE":90.4093,"ARG_OF_PERICENTER":285.4416,"MEAN_ANOMALY":74.5761,"EPHEMERIS_TYPE":0,"CLASSIFICATION_TYPE":"U","NORAD_CAT_ID":25338,"ELEMENT_SET_NO":999,"REV_AT_EPOCH":44687,"BSTAR":9.9145e-5,"MEAN_MOTION_DOT":1.99e-6,"MEAN_MOTION_DDOT":0},{"OBJECT_NAME":"NOAA 16","OBJECT_ID":"2000-055A","EPOCH":"2026-03-08T02:41:15.008928","MEAN_MOTION":14.1389763,"ECCENTRICITY":0.0009525,"INCLINATION":98.4706,"RA_OF_ASC_NODE":86.6969,"ARG_OF_PERICENTER":227.2357,"MEAN_ANOMALY":132.8016,"EPHEMERIS_TYPE":0,"CLASSIFICATION_TYPE":"U","NORAD_CAT_ID":26536,"ELEMENT_SET_NO":999,"REV_AT_EPOCH":60944,"BSTAR":9.7489e-5,"MEAN_MOTION_DOT":1.44e-6,"MEAN_MOTION_DDOT":0}]
